start=new Date('2021-09-03T00:00:00.000Z').valueOf();
sats=[{"MEAN_MOTION_DOT":"-0.00000944","MEAN_MOTION":"15.06392170","PERIOD":"95.593","RA_OF_ASC_NODE":"78.8934","COUNTRY_CODE":"US","OBJECT_NAME":"STARLINK-1468","REF_FRAME":"TEME","MEAN_MOTION_DDOT":"0.0000000000000","INCLINATION":"53.0539","TLE_LINE2":"2 45734  53.0539  78.8934 0002141  89.8892 270.2342 15.06392170 67660","OBJECT_TYPE":"PAYLOAD","BSTAR":"-0.00004445300000","FILE":"3107724","ARG_OF_PERICENTER":"89.8892","MEAN_ELEMENT_THEORY":"SGP4","TLE_LINE1":"1 45734U 20038E   21245.77328634 -.00000944  00000-0 -44453-4 0  9993","NORAD_CAT_ID":"45734","SITE":"AFETR","MEAN_ANOMALY":"270.2342","EPOCH":"2021-09-02T18:33:31.939776","EPHEMERIS_TYPE":"0","DECAY_DATE":null,"CENTER_NAME":"EARTH","ELEMENT_SET_NO":"999","PERIAPSIS":"545.755","APOAPSIS":"548.720","SEMIMAJOR_AXIS":"6925.373","CLASSIFICATION_TYPE":"U","TIME_SYSTEM":"UTC","RCS_SIZE":"LARGE","GP_ID":"183987309","REV_AT_EPOCH":"6766","OBJECT_ID":"2020-038E","ECCENTRICITY":"0.00021410","LAUNCH_DATE":"2020-06-13"},{"OBJECT_ID":"2020-038F","GP_ID":"183987059","RCS_SIZE":"LARGE","REV_AT_EPOCH":"6766","ECCENTRICITY":"0.00019430","LAUNCH_DATE":"2020-06-13","EPOCH":"2021-09-02T19:26:38.850432","MEAN_ANOMALY":"257.7482","EPHEMERIS_TYPE":"0","DECAY_DATE":null,"CENTER_NAME":"EARTH","ELEMENT_SET_NO":"999","PERIAPSIS":"545.904","APOAPSIS":"548.595","SEMIMAJOR_AXIS":"6925.385","CLASSIFICATION_TYPE":"U","TIME_SYSTEM":"UTC","MEAN_MOTION_DDOT":"0.0000000000000","REF_FRAME":"TEME","INCLINATION":"53.0547","TLE_LINE2":"2 45735  53.0547  78.7303 0001943 102.3724 257.7482 15.06388181 67665","OBJECT_TYPE":"PAYLOAD","FILE":"3107724","ARG_OF_PERICENTER":"102.3724","BSTAR":"0.00007567000000","MEAN_ELEMENT_THEORY":"SGP4","TLE_LINE1":"1 45735U 20038F   21245.81017188  .00000845  00000-0  75670-4 0  9991","NORAD_CAT_ID":"45735","SITE":"AFETR","MEAN_MOTION_DOT":"0.00000845","MEAN_MOTION":"15.06388181","PERIOD":"95.593","RA_OF_ASC_NODE":"78.7303","COUNTRY_CODE":"US","OBJECT_NAME":"STARLINK-1471"},{"RCS_SIZE":"LARGE","GP_ID":"183986308","OBJECT_ID":"2020-038G","REV_AT_EPOCH":"6766","ECCENTRICITY":"0.00018020","LAUNCH_DATE":"2020-06-13","MEAN_ANOMALY":"258.8838","EPOCH":"2021-09-02T18:54:46.188576","DECAY_DATE":null,"EPHEMERIS_TYPE":"0","CENTER_NAME":"EARTH","ELEMENT_SET_NO":"999","CLASSIFICATION_TYPE":"U","PERIAPSIS":"545.977","APOAPSIS":"548.473","SEMIMAJOR_AXIS":"6925.360","TIME_SYSTEM":"UTC","MEAN_MOTION_DDOT":"0.0000000000000","REF_FRAME":"TEME","OBJECT_TYPE":"PAYLOAD","TLE_LINE2":"2 45736  53.0540  78.8297 0001802 101.2354 258.8838 15.06396372 67661","INCLINATION":"53.0540","ARG_OF_PERICENTER":"101.2354","FILE":"3107724","BSTAR":"0.00007674400000","MEAN_ELEMENT_THEORY":"SGP4","TLE_LINE1":"1 45736U 20038G   21245.78803459  .00000862  00000-0  76744-4 0  9994","NORAD_CAT_ID":"45736","SITE":"AFETR","MEAN_MOTION_DOT":"0.00000862","MEAN_MOTION":"15.06396372","PERIOD":"95.592","RA_OF_ASC_NODE":"78.8297","COUNTRY_CODE":"US","OBJECT_NAME":"STARLINK-1472"},{"MEAN_ANOMALY":"268.1177","EPOCH":"2021-09-02T19:10:40.231200","DECAY_DATE":null,"EPHEMERIS_TYPE":"0","CENTER_NAME":"EARTH","ELEMENT_SET_NO":"999","PERIAPSIS":"545.680","SEMIMAJOR_AXIS":"6925.329","APOAPSIS":"548.709","CLASSIFICATION_TYPE":"U","TIME_SYSTEM":"UTC","GP_ID":"183986558","RCS_SIZE":"LARGE","OBJECT_ID":"2020-038J","REV_AT_EPOCH":"6766","ECCENTRICITY":"0.00021870","LAUNCH_DATE":"2020-06-13","MEAN_MOTION_DOT":"0.00002562","PERIOD":"95.592","MEAN_MOTION":"15.06406347","RA_OF_ASC_NODE":"78.7901","COUNTRY_CODE":"US","OBJECT_NAME":"STARLINK-1474","REF_FRAME":"TEME","MEAN_MOTION_DDOT":"0.0000000000000","TLE_LINE2":"2 45738  53.0547  78.7901 0002187  92.0063 268.1177 15.06406347 67666","OBJECT_TYPE":"PAYLOAD","INCLINATION":"53.0547","BSTAR":"0.00019079000000","FILE":"3107724","ARG_OF_PERICENTER":"92.0063","MEAN_ELEMENT_THEORY":"SGP4","TLE_LINE1":"1 45738U 20038J   21245.79907675  .00002562  00000-0  19079-3 0  9998","NORAD_CAT_ID":"45738","SITE":"AFETR"},{"RA_OF_ASC_NODE":"38.7113","COUNTRY_CODE":"US","OBJECT_NAME":"STARLINK-1475","MEAN_MOTION_DOT":"0.00001219","PERIOD":"95.592","MEAN_MOTION":"15.06400162","MEAN_ELEMENT_THEORY":"SGP4","TLE_LINE1":"1 45739U 20038K   21245.81383031  .00001219  00000-0  10074-3 0  9990","NORAD_CAT_ID":"45739","SITE":"AFETR","MEAN_MOTION_DDOT":"0.0000000000000","REF_FRAME":"TEME","TLE_LINE2":"2 45739  53.0553  38.7113 0001272 127.3833 232.7272 15.06400162 68221","OBJECT_TYPE":"PAYLOAD","INCLINATION":"53.0553","FILE":"3107724","BSTAR":"0.00010074000000","ARG_OF_PERICENTER":"127.3833","APOAPSIS":"548.094","PERIAPSIS":"546.332","CLASSIFICATION_TYPE":"U","SEMIMAJOR_AXIS":"6925.348","TIME_SYSTEM":"UTC","EPOCH":"2021-09-02T19:31:54.938784","MEAN_ANOMALY":"232.7272","EPHEMERIS_TYPE":"0","DECAY_DATE":null,"CENTER_NAME":"EARTH","ELEMENT_SET_NO":"999","GP_ID":"183986809","REV_AT_EPOCH":"6822","RCS_SIZE":"LARGE","OBJECT_ID":"2020-038K","ECCENTRICITY":"0.00012720","LAUNCH_DATE":"2020-06-13"},{"TIME_SYSTEM":"UTC","PERIAPSIS":"545.944","APOAPSIS":"548.497","SEMIMAJOR_AXIS":"6925.355","CLASSIFICATION_TYPE":"U","DECAY_DATE":null,"EPHEMERIS_TYPE":"0","EPOCH":"2021-09-02T19:21:18.453312","MEAN_ANOMALY":"272.7234","ELEMENT_SET_NO":"999","CENTER_NAME":"EARTH","ECCENTRICITY":"0.00018430","GP_ID":"183987560","REV_AT_EPOCH":"6766","RCS_SIZE":"LARGE","OBJECT_ID":"2020-038L","LAUNCH_DATE":"2020-06-13","RA_OF_ASC_NODE":"78.7561","OBJECT_NAME":"STARLINK-1479","COUNTRY_CODE":"US","PERIOD":"95.592","MEAN_MOTION":"15.06397745","MEAN_MOTION_DOT":"0.00001006","NORAD_CAT_ID":"45740","TLE_LINE1":"1 45740U 20038L   21245.80646358  .00001006  00000-0  86462-4 0  9994","MEAN_ELEMENT_THEORY":"SGP4","SITE":"AFETR","MEAN_MOTION_DDOT":"0.0000000000000","REF_FRAME":"TEME","FILE":"3107724","BSTAR":"0.00008646200000","ARG_OF_PERICENTER":"87.3966","OBJECT_TYPE":"PAYLOAD","TLE_LINE2":"2 45740  53.0544  78.7561 0001843  87.3966 272.7234 15.06397745 67661","INCLINATION":"53.0544"},{"DECAY_DATE":null,"EPHEMERIS_TYPE":"0","MEAN_ANOMALY":"275.1815","EPOCH":"2021-09-02T18:38:51.992160","ELEMENT_SET_NO":"999","CENTER_NAME":"EARTH","PERIAPSIS":"545.910","APOAPSIS":"548.545","SEMIMAJOR_AXIS":"6925.363","CLASSIFICATION_TYPE":"U","TIME_SYSTEM":"UTC","GP_ID":"183985808","RCS_SIZE":"LARGE","REV_AT_EPOCH":"6767","OBJECT_ID":"2020-038M","ECCENTRICITY":"0.00019020","LAUNCH_DATE":"2020-06-13","PERIOD":"95.592","MEAN_MOTION":"15.06395401","MEAN_MOTION_DOT":"0.00002538","RA_OF_ASC_NODE":"78.8832","COUNTRY_CODE":"US","OBJECT_NAME":"STARLINK-1480","MEAN_MOTION_DDOT":"0.0000000000000","REF_FRAME":"TEME","FILE":"3107724","BSTAR":"0.00018924000000","ARG_OF_PERICENTER":"84.9391","INCLINATION":"53.0547","TLE_LINE2":"2 45741  53.0547  78.8832 0001902  84.9391 275.1815 15.06395401 67678","OBJECT_TYPE":"PAYLOAD","TLE_LINE1":"1 45741U 20038M   21245.77699065  .00002538  00000-0  18924-3 0  9992","NORAD_CAT_ID":"45741","MEAN_ELEMENT_THEORY":"SGP4","SITE":"AFETR"},{"LAUNCH_DATE":"2020-06-13","ECCENTRICITY":"0.00017710","OBJECT_ID":"2020-038N","GP_ID":"183986058","RCS_SIZE":"LARGE","REV_AT_EPOCH":"6766","TIME_SYSTEM":"UTC","PERIAPSIS":"546.020","SEMIMAJOR_AXIS":"6925.381","APOAPSIS":"548.473","CLASSIFICATION_TYPE":"U","ELEMENT_SET_NO":"999","CENTER_NAME":"EARTH","DECAY_DATE":null,"EPHEMERIS_TYPE":"0","MEAN_ANOMALY":"258.6527","EPOCH":"2021-09-02T20:03:47.885760","SITE":"AFETR","NORAD_CAT_ID":"45742","TLE_LINE1":"1 45742U 20038N   21245.83597090  .00001343  00000-0  10907-3 0  9991","MEAN_ELEMENT_THEORY":"SGP4","FILE":"3107724","ARG_OF_PERICENTER":"101.4661","BSTAR":"0.00010907000000","TLE_LINE2":"2 45742  53.0541  78.6157 0001771 101.4661 258.6527 15.06389314 67661","OBJECT_TYPE":"PAYLOAD","INCLINATION":"53.0541","MEAN_MOTION_DDOT":"0.0000000000000","REF_FRAME":"TEME","OBJECT_NAME":"STARLINK-1481","COUNTRY_CODE":"US","RA_OF_ASC_NODE":"78.6157","MEAN_MOTION":"15.06389314","PERIOD":"95.593","MEAN_MOTION_DOT":"0.00001343"},{"NORAD_CAT_ID":"45743","TLE_LINE1":"1 45743U 20038P   21245.80278475  .00002272  00000-0  17137-3 0  9996","MEAN_ELEMENT_THEORY":"SGP4","SITE":"AFETR","REF_FRAME":"TEME","MEAN_MOTION_DDOT":"0.0000000000000","FILE":"3107724","ARG_OF_PERICENTER":"85.2248","BSTAR":"0.00017137000000","TLE_LINE2":"2 45743  53.0548  78.7662 0001813  85.2248 274.8948 15.06397216 67665","OBJECT_TYPE":"PAYLOAD","INCLINATION":"53.0548","RA_OF_ASC_NODE":"78.7662","OBJECT_NAME":"STARLINK-1483","COUNTRY_CODE":"US","PERIOD":"95.592","MEAN_MOTION":"15.06397216","MEAN_MOTION_DOT":"0.00002272","ECCENTRICITY":"0.00018130","REV_AT_EPOCH":"6766","GP_ID":"183987310","RCS_SIZE":"LARGE","OBJECT_ID":"2020-038P","LAUNCH_DATE":"2020-06-13","TIME_SYSTEM":"UTC","PERIAPSIS":"545.967","SEMIMAJOR_AXIS":"6925.357","APOAPSIS":"548.478","CLASSIFICATION_TYPE":"U","DECAY_DATE":null,"EPHEMERIS_TYPE":"0","EPOCH":"2021-09-02T19:16:00.602400","MEAN_ANOMALY":"274.8948","ELEMENT_SET_NO":"999","CENTER_NAME":"EARTH"},{"MEAN_MOTION_DOT":"0.00000937","PERIOD":"95.593","MEAN_MOTION":"15.06387917","RA_OF_ASC_NODE":"78.6704","COUNTRY_CODE":"US","OBJECT_NAME":"STARLINK-1500","MEAN_MOTION_DDOT":"0.0000000000000","REF_FRAME":"TEME","TLE_LINE2":"2 45744  53.0550  78.6704 0001776  86.6305 273.4887 15.06387917 67677","OBJECT_TYPE":"PAYLOAD","INCLINATION":"53.0550","ARG_OF_PERICENTER":"86.6305","FILE":"3107724","BSTAR":"0.00008184200000","MEAN_ELEMENT_THEORY":"SGP4","TLE_LINE1":"1 45744U 20038Q   21245.82491646  .00000937  00000-0  81842-4 0  9997","NORAD_CAT_ID":"45744","SITE":"AFETR","EPOCH":"2021-09-02T19:47:52.782144","MEAN_ANOMALY":"273.4887","EPHEMERIS_TYPE":"0","DECAY_DATE":null,"CENTER_NAME":"EARTH","ELEMENT_SET_NO":"999","APOAPSIS":"548.481","PERIAPSIS":"546.021","SEMIMAJOR_AXIS":"6925.386","CLASSIFICATION_TYPE":"U","TIME_SYSTEM":"UTC","GP_ID":"183987060","RCS_SIZE":"LARGE","OBJECT_ID":"2020-038Q","REV_AT_EPOCH":"6767","ECCENTRICITY":"0.00017760","LAUNCH_DATE":"2020-06-13"}];
